{"fetched_at":"2026-03-30T06:02:59Z","count":15439,"tles":[{"name":"STARLINK-5972","line1":"1 56362U 23058AX  26087.94237929  .00000024  00000+0  59045-5 0  9991","line2":"2 56362  97.6035  90.2002 0001962  93.6723 266.4728 15.05649190161097","category":"Starlink"}]}