{
  "norad_id": 56362,
  "name": "STARLINK-5972",
  "history": [
    {
      "epoch": "2026-03-28T22:37:01.570656",
      "apogee_km": 550.8728436902202,
      "perigee_km": 548.1544335796207,
      "latitude_deg": -39.17425499083559,
      "longitude_deg": -93.33158816001378,
      "semi_major_axis_km": 6927.65063863492,
      "eccentricity": 0.0001962,
      "inclination_deg": 97.6035,
      "raan_deg": 90.2002,
      "arg_perigee_deg": 93.6723,
      "mean_anomaly_deg": 266.4728,
      "mean_motion_rev_day": 15.0564919
    }
  ]
}